MALLIGYONG-1            
1 58400U 23179A   24206.93643670  .00007378  00000+0  32979-3 0  9998
2 58400  97.3982  93.1451 0003545  80.4808 279.6828 15.21607046 37469
